NORAD_CAT_ID,OBJECT_NAME,OBJECT_TYPE,EPOCH,MEAN_MOTION,ECCENTRICITY,INCLINATION,RA_OF_ASC_NODE,ARG_OF_PERICENTER,MEAN_ANOMALY,BSTAR,MEAN_MOTION_DOT,MEAN_MOTION_DDOT,TLE_LINE0,TLE_LINE1,TLE_LINE2,SEMIMAJOR_AXIS,PERIOD,APOGEE,PERIGEE,DECAYED
49735.0,STARLINK-3113,PAYLOAD,2022-10-08 11:46:14,15.08847394,0.0001678,53.2179,2.5007,50.8447,309.2694,0.00017955,2.571e-05,0.0,0 STARLINK-3113,1 49735U 21115M   22281.49044132  .00002571  00000-0  17955-3 0  9995,2 49735  53.2179   2.5007 0001678  50.8447 309.2694 15.08847394 48061,6917.858,95.437,540.884,538.562,0.0
49735.0,STARLINK-3113,PAYLOAD,2022-10-09 05:15:28,15.08846127,0.000154,53.2185,359.2297,47.2129,312.8992,0.0003569,5.398e-05,0.0,0 STARLINK-3113,1 49735U 21115M   22282.21908275  .00005398  00000-0  35690-3 0  9999,2 49735  53.2185 359.2297 0001540  47.2129 312.8992 15.08846127 48172,6917.861999999999,95.437,540.7919999999998,538.661,0.0
49735.0,STARLINK-3113,PAYLOAD,2022-10-09 11:37:01,15.08848981,0.0001696,53.2181,358.0405,49.5505,310.5635,0.00027229,4.049e-05,0.0,0 STARLINK-3113,1 49735U 21115M   22282.48404058  .00004049  00000-0  27229-3 0  9999,2 49735  53.2181 358.0405 0001696  49.5505 310.5635 15.08848981 47102,6917.853,95.437,540.891,538.545,0.0
49735.0,STARLINK-3113,PAYLOAD,2022-10-10 11:27:47,15.08849701,0.0001774999999999,53.2185,353.5807,46.5282,313.5857,0.00020561,2.987e-05,0.0,0 STARLINK-3113,1 49735U 21115M   22283.47763752  .00002987  00000-0  20561-3 0  9999,2 49735  53.2185 353.5807 0001775  46.5282 313.5857 15.08849701 47255,6917.851,95.437,540.944,538.488,0.0
49735.0,STARLINK-3113,PAYLOAD,2022-10-11 12:53:59,15.08818169,0.0001519,53.2184,348.8222,52.004,308.1089,-0.00034603,-5.787e-05,0.0,0 STARLINK-3113,1 49735U 21115M   22284.53748983 -.00005787  00000-0 -34603-3 0  9991,2 49735  53.2184 348.8222 0001519  52.0040 308.1089 15.08818169 48524,6917.946999999999,95.439,540.863,538.761,0.0
49735.0,STARLINK-3113,PAYLOAD,2022-10-11 14:29:22,15.08815848,0.0001578,53.2184,348.5258,50.5852,309.528,-0.00036218,-6.044e-05,0.0,0 STARLINK-3113,1 49735U 21115M   22284.60373211 -.00006044  00000-0 -36218-3 0  9998,2 49735  53.2184 348.5258 0001578  50.5852 309.5280 15.08815848 47426,6917.954000000002,95.439,540.911,538.7280000000002,0.0
49735.0,STARLINK-3113,PAYLOAD,2022-10-12 11:09:22,15.08843486,0.0001751999999999,53.2192,344.6588,47.3443,312.7697,0.00013582,1.874e-05,0.0,0 STARLINK-3113,1 49735U 21115M   22285.46484800  .00001874  00000-0  13582-3 0  9993,2 49735  53.2192 344.6588 0001752  47.3443 312.7697 15.08843486 48666,6917.87,95.437,540.947,538.523,0.0
49735.0,STARLINK-3113,PAYLOAD,2022-10-12 12:44:46,15.08839371,0.0001647,53.22,344.3635,53.0546,307.0596,0.00013534,1.867e-05,0.0,0 STARLINK-3113,1 49735U 21115M   22285.53109111  .00001867  00000-0  13534-3 0  9999,2 49735  53.2200 344.3635 0001647  53.0546 307.0596 15.08839371 47568,6917.882,95.438,540.887,538.6080000000002,0.0
49735.0,STARLINK-3113,PAYLOAD,2022-10-12 14:20:09,15.08843368,0.0001764,53.2195,344.065,49.6249,310.4897,0.00013801,1.909e-05,0.0,0 STARLINK-3113,1 49735U 21115M   22285.59732855  .00001909  00000-0  13801-3 0  9996,2 49735  53.2195 344.0650 0001764  49.6249 310.4897 15.08843368 47570,6917.87,95.437,540.955,538.515,0.0
49735.0,STARLINK-3113,PAYLOAD,2022-10-13 04:38:38,15.08818158,0.0001626999999999,53.2192,341.3886,46.0495,314.0631,0.00022191,3.243e-05,0.0,0 STARLINK-3113,1 49735U 21115M   22286.19350382  .00003243  00000-0  22191-3 0  9999,2 49735  53.2192 341.3886 0001627  46.0495 314.0631 15.08818158 48778,6917.946999999999,95.439,540.938,538.687,0.0
49735.0,STARLINK-3113,PAYLOAD,2022-10-13 09:24:47,15.08836718,0.0001519,53.2192,340.4939,66.6801,293.4351,3.1375e-05,2.11e-06,0.0,0 STARLINK-3113,1 49735U 21115M   22286.39221839  .00000211  00000-0  31375-4 0  9992,2 49735  53.2192 340.4939 0001519  66.6801 293.4351 15.08836718 47697,6917.89,95.438,540.806,538.705,0.0
49735.0,STARLINK-3113,PAYLOAD,2022-10-14 02:54:04,15.08814769,0.0001766999999999,53.2184,337.2262,50.8112,309.3037,0.00010999,1.462e-05,0.0,0 STARLINK-3113,1 49735U 21115M   22287.12088209  .00001462  00000-0  10999-3 0  9993,2 49735  53.2184 337.2262 0001767  50.8112 309.3037 15.08814769 48912,6917.958000000001,95.439,541.045,538.6,0.0
49735.0,STARLINK-3113,PAYLOAD,2022-10-14 10:50:59,15.08831463,0.0001818,53.2186,335.7381,49.5707,310.5443,4.7884e-05,4.74e-06,0.0,0 STARLINK-3113,1 49735U 21115M   22287.45207762  .00000474  00000-0  47884-4 0  9992,2 49735  53.2186 335.7381 0001818  49.5707 310.5443 15.08831463 47858,6917.906,95.438,541.029,538.514,0.0
49735.0,STARLINK-3113,PAYLOAD,2022-10-14 20:23:17,15.0884852,0.0001882,53.219,333.9546,48.2602,311.8551,9.6915e-05,1.255e-05,0.0,0 STARLINK-3113,1 49735U 21115M   22287.84950521  .00001255  00000-0  96915-4 0  9990,2 49735  53.2190 333.9546 0001882  48.2602 311.8551 15.08848520 49024,6917.854,95.437,541.021,538.4169999999998,0.0
49735.0,STARLINK-3113,PAYLOAD,2022-10-15 10:41:44,15.08850208,0.000167,53.2184,331.2774,58.6493,301.4662,0.0001406,1.951e-05,0.0,0 STARLINK-3113,1 49735U 21115M   22288.44565828  .00001951  00000-0  14060-3 0  9992,2 49735  53.2184 331.2774 0001670  58.6493 301.4662 15.08850208 48000,6917.849,95.437,540.869,538.559,0.0
49735.0,STARLINK-3113,PAYLOAD,2022-10-16 02:35:36,15.08846211,0.0001665999999999,53.2188,328.30300000000005,56.4965,303.6186,0.00010692,1.414e-05,0.0,0 STARLINK-3113,1 49735U 21115M   22289.10806130  .00001414  00000-0  10692-3 0  9991,2 49735  53.2188 328.3030 0001666  56.4965 303.6186 15.08846211 49219,6917.861,95.437,540.879,538.5740000000002,0.0
49735.0,STARLINK-3113,PAYLOAD,2022-10-16 08:57:09,15.0884352,0.000182,53.2185,327.1143,51.4008,308.7147,8.020399999999999e-05,9.89e-06,0.0,0 STARLINK-3113,1 49735U 21115M   22289.37302325  .00000989  00000-0  80204-4 0  9990,2 49735  53.2185 327.1143 0001820  51.4008 308.7147 15.08843520 48147,6917.87,95.437,540.994,538.476,0.0
49735.0,STARLINK-3113,PAYLOAD,2022-10-17 02:26:24,15.08843438,0.0001841999999999,53.2176,323.8441,48.8514,311.2637,-0.00013874,-2.496e-05,0.0,0 STARLINK-3113,1 49735U 21115M   22290.10166725 -.00002496  00000-0 -13874-3 0  9990,2 49735  53.2176 323.8441 0001842  48.8514 311.2637 15.08843438 49363,6917.87,95.437,541.009,538.461,0.0
49735.0,STARLINK-3113,PAYLOAD,2022-10-17 11:58:42,15.088489,0.0001916,53.218,322.0605,43.5627,316.5517,-0.00012693,-2.308e-05,0.0,0 STARLINK-3113,1 49735U 21115M   22290.49910096 -.00002308  00000-0 -12693-3 0  9990,2 49735  53.2180 322.0605 0001916  43.5627 316.5517 15.08848900 48318,6917.853,95.437,541.044,538.393,0.0
49735.0,STARLINK-3113,PAYLOAD,2022-10-18 08:38:43,15.08837197,0.000194,53.2159,318.1943,46.6043,313.5111,-9.5997e-05,-1.816e-05,0.0,0 STARLINK-3113,1 49735U 21115M   22291.36022338 -.00001816  00000-0 -95997-4 0  9992,2 49735  53.2159 318.1943 0001940  46.6043 313.5111 15.08837197 48445,6917.889,95.438,541.096,538.4119999999998,0.0
49735.0,STARLINK-3113,PAYLOAD,2022-10-19 08:29:30,15.08842272,0.0001898,53.2185,313.7340000000001,49.4615,310.6542,2.3699e-05,8.9e-07,0.0,0 STARLINK-3113,1 49735U 21115M   22292.35382050  .00000089  00000-0  23699-4 0  9991,2 49735  53.2185 313.7340 0001898  49.4615 310.6542 15.08842272 48596,6917.873000000001,95.437,541.0509999999998,538.425,0.0
49735.0,STARLINK-3113,PAYLOAD,2022-10-20 05:09:31,15.08835615,0.0001882,53.2189,309.8691,44.4922,315.6221,4.4232e-05,4.16e-06,0.0,0 STARLINK-3113,1 49735U 21115M   22293.21494553  .00000416  00000-0  44232-4 0  9999,2 49735  53.2189 309.8691 0001882  44.4922 315.6221 15.08835615 49834,6917.894,95.438,541.061,538.457,0.0
49735.0,STARLINK-3113,PAYLOAD,2022-10-20 06:44:54,15.08837282,0.0001863,53.2185,309.5715,46.1371,313.9775,5.1146e-05,5.26e-06,0.0,0 STARLINK-3113,1 49735U 21115M   22293.28118284  .00000526  00000-0  51146-4 0  9994,2 49735  53.2185 309.5715 0001863  46.1371 313.9775 15.08837282 48735,6917.889,95.438,541.0419999999998,538.465,0.0
49735.0,STARLINK-3113,PAYLOAD,2022-10-20 17:52:35,15.0884047,0.0002013,53.2191,307.4901,51.4028,308.7144,0.00010622,1.403e-05,0.0,0 STARLINK-3113,1 49735U 21115M   22293.74485987  .00001403  00000-0  10622-3 0  9990,2 49735  53.2191 307.4901 0002013  51.4028 308.7144 15.08840470 48805,6917.879,95.438,541.137,538.351,0.0
49735.0,STARLINK-3113,PAYLOAD,2022-10-21 08:11:04,15.08842741,0.0001994,53.2188,304.813,54.8053,305.3126,2.8534e-05,1.66e-06,0.0,0 STARLINK-3113,1 49735U 21115M   22294.34102124  .00000166  00000-0  28534-4 0  9993,2 49735  53.2188 304.8130 0001994  54.8053 305.3126 15.08842741 48893,6917.871999999999,95.437,541.116,538.3580000000002,0.0
49735.0,STARLINK-3113,PAYLOAD,2022-10-22 04:51:04,15.08891853,0.0001882,53.2187,300.9479,51.3028,308.8132,-0.00071786,-0.00011711,0.0,0 STARLINK-3113,1 49735U 21115M   22295.20213649 -.00011711  00000-0 -71786-3 0  9990,2 49735  53.2187 300.9479 0001882  51.3028 308.8132 15.08891853 50138,6917.722,95.434,540.889,538.285,0.0
49735.0,STARLINK-3113,PAYLOAD,2022-10-22 09:37:14,15.08840807,0.0002064,53.2185,300.0556,55.7464,304.3723,5.4336e-05,5.77e-06,0.0,0 STARLINK-3113,1 49735U 21115M   22295.40086352  .00000577  00000-0  54336-4 0  9990,2 49735  53.2185 300.0556 0002064  55.7464 304.3723 15.08840807 49057,6917.878000000002,95.438,541.1709999999998,538.315,0.0
49735.0,STARLINK-3113,PAYLOAD,2022-10-22 17:34:09,15.08850533,0.0002198,53.2184,298.5691,50.5887,309.53,7.9095e-05,9.71e-06,0.0,0 STARLINK-3113,1 49735U 21115M   22295.73205587  .00000971  00000-0  79095-4 0  9996,2 49735  53.2184 298.5691 0002198  50.5887 309.5300 15.08850533 49108,6917.848000000001,95.437,541.234,538.193,0.0
49735.0,STARLINK-3113,PAYLOAD,2022-10-23 04:41:51,15.08841856,0.0002116,53.2182,296.487,51.9384,308.1799,5.4302e-05,5.76e-06,0.0,0 STARLINK-3113,1 49735U 21115M   22296.19574053  .00000576  00000-0  54302-4 0  9999,2 49735  53.2182 296.4870 0002116  51.9384 308.1799 15.08841856 50285,6917.875,95.437,541.2040000000002,538.276,0.0
